start=new Date('2022-03-20T00:00:00.000Z').valueOf();
sats=[{"FILE":"3365744","OBJECT_TYPE":"PAYLOAD","RCS_SIZE":"LARGE","PERIOD":"95.592","DECAY_DATE":null,"COUNTRY_CODE":"US","MEAN_MOTION_DDOT":"0.0000000000000","OBJECT_NAME":"STARLINK-2741","CLASSIFICATION_TYPE":"U","CENTER_NAME":"EARTH","TIME_SYSTEM":"UTC","BSTAR":"0.00053119000000","ECCENTRICITY":"0.00017910","REF_FRAME":"TEME","SITE":"AFETR","EPHEMERIS_TYPE":"0","TLE_LINE2":"2 48684  53.0541 121.4517 0001791  58.4245 301.6919 15.06406344 45468","MEAN_ELEMENT_THEORY":"SGP4","APOAPSIS":"548.434","ELEMENT_SET_NO":"999","MEAN_MOTION":"15.06406344","LAUNCH_DATE":"2021-05-26","TLE_LINE1":"1 48684U 21044AY  22078.45943774  .00007641  00000-0  53119-3 0  9993","NORAD_CAT_ID":"48684","GP_ID":"199152837","SEMIMAJOR_AXIS":"6925.329","OBJECT_ID":"2021-044AY","EPOCH":"2022-03-19T11:01:35.420736","PERIAPSIS":"545.954","ARG_OF_PERICENTER":"58.4245","MEAN_MOTION_DOT":"0.00007641","MEAN_ANOMALY":"301.6919","RA_OF_ASC_NODE":"121.4517","INCLINATION":"53.0541","REV_AT_EPOCH":"4546"},{"SITE":"AFETR","EPHEMERIS_TYPE":"0","ECCENTRICITY":"0.00013630","REF_FRAME":"TEME","TLE_LINE1":"1 48685U 21044AZ  22078.91668981  .00011594  00000-0  79612-3 0  9997","NORAD_CAT_ID":"48685","TLE_LINE2":"2 48685  53.0536 104.3817 0001363  78.4233   5.4287 15.06390803  3597","MEAN_ELEMENT_THEORY":"SGP4","ELEMENT_SET_NO":"999","APOAPSIS":"548.186","MEAN_MOTION":"15.06390803","LAUNCH_DATE":"2021-05-26","PERIOD":"95.593","DECAY_DATE":null,"COUNTRY_CODE":"US","MEAN_MOTION_DDOT":"0.0000000000000","CLASSIFICATION_TYPE":"U","OBJECT_NAME":"STARLINK-2751","FILE":"3366144","RCS_SIZE":"LARGE","OBJECT_TYPE":"PAYLOAD","BSTAR":"0.00079612000000","CENTER_NAME":"EARTH","TIME_SYSTEM":"UTC","MEAN_ANOMALY":"5.4287","PERIAPSIS":"546.298","EPOCH":"2022-03-19T22:00:01.999584","ARG_OF_PERICENTER":"78.4233","MEAN_MOTION_DOT":"0.00011594","INCLINATION":"53.0536","REV_AT_EPOCH":"359","RA_OF_ASC_NODE":"104.3817","SEMIMAJOR_AXIS":"6925.377","OBJECT_ID":"2021-044AZ","GP_ID":"199187025"},{"APOAPSIS":"548.383","ELEMENT_SET_NO":"999","LAUNCH_DATE":"2021-05-26","MEAN_MOTION":"15.06378856","TLE_LINE2":"2 48686  53.0531 109.3861 0001595  47.8200 188.5099 15.06378856  3596","MEAN_ELEMENT_THEORY":"SGP4","TLE_LINE1":"1 48686U 21044BA  22078.91668981  .00038675  00000-0  26026-2 0  9997","NORAD_CAT_ID":"48686","REF_FRAME":"TEME","ECCENTRICITY":"0.00015950","EPHEMERIS_TYPE":"0","SITE":"AFETR","TIME_SYSTEM":"UTC","CENTER_NAME":"EARTH","BSTAR":"0.00260260000000","OBJECT_TYPE":"PAYLOAD","FILE":"3366144","RCS_SIZE":"LARGE","DECAY_DATE":null,"MEAN_MOTION_DDOT":"0.0000000000000","COUNTRY_CODE":"US","OBJECT_NAME":"STARLINK-2629","CLASSIFICATION_TYPE":"U","PERIOD":"95.593","RA_OF_ASC_NODE":"109.3861","REV_AT_EPOCH":"359","INCLINATION":"53.0531","MEAN_MOTION_DOT":"0.00038675","PERIAPSIS":"546.174","EPOCH":"2022-03-19T22:00:01.999584","ARG_OF_PERICENTER":"47.8200","MEAN_ANOMALY":"188.5099","GP_ID":"199188277","OBJECT_ID":"2021-044BA","SEMIMAJOR_AXIS":"6925.413"},{"MEAN_MOTION_DOT":"0.00042320","ARG_OF_PERICENTER":"56.7204","PERIAPSIS":"546.164","EPOCH":"2022-03-19T22:00:01.999584","MEAN_ANOMALY":"169.4258","RA_OF_ASC_NODE":"99.3966","REV_AT_EPOCH":"359","INCLINATION":"53.0553","GP_ID":"199186749","OBJECT_ID":"2021-044BB","SEMIMAJOR_AXIS":"6925.358","REF_FRAME":"TEME","ECCENTRICITY":"0.00015290","EPHEMERIS_TYPE":"0","SITE":"AFETR","MEAN_MOTION":"15.06397000","LAUNCH_DATE":"2021-05-26","APOAPSIS":"548.282","ELEMENT_SET_NO":"999","TLE_LINE2":"2 48687  53.0553  99.3966 0001529  56.7204 169.4258 15.06397000  3592","MEAN_ELEMENT_THEORY":"SGP4","NORAD_CAT_ID":"48687","TLE_LINE1":"1 48687U 21044BB  22078.91668981  .00042320  00000-0  28432-2 0  9993","FILE":"3366144","OBJECT_TYPE":"PAYLOAD","RCS_SIZE":"LARGE","CLASSIFICATION_TYPE":"U","OBJECT_NAME":"STARLINK-2627","MEAN_MOTION_DDOT":"0.0000000000000","DECAY_DATE":null,"COUNTRY_CODE":"US","PERIOD":"95.592","TIME_SYSTEM":"UTC","CENTER_NAME":"EARTH","BSTAR":"0.00284320000000"},{"OBJECT_ID":"2021-044BC","SEMIMAJOR_AXIS":"6925.319","GP_ID":"199187276","REV_AT_EPOCH":"359","INCLINATION":"53.0535","RA_OF_ASC_NODE":"99.3800","MEAN_ANOMALY":"132.5279","MEAN_MOTION_DOT":"0.00013202","ARG_OF_PERICENTER":"73.6351","EPOCH":"2022-03-19T22:00:01.999584","PERIAPSIS":"546.107","BSTAR":"0.00090328000000","TIME_SYSTEM":"UTC","CENTER_NAME":"EARTH","CLASSIFICATION_TYPE":"U","OBJECT_NAME":"STARLINK-2742","MEAN_MOTION_DDOT":"0.0000000000000","DECAY_DATE":null,"COUNTRY_CODE":"US","PERIOD":"95.592","FILE":"3366144","RCS_SIZE":"LARGE","OBJECT_TYPE":"PAYLOAD","NORAD_CAT_ID":"48688","TLE_LINE1":"1 48688U 21044BC  22078.91668981  .00013202  00000-0  90328-3 0  9995","MEAN_MOTION":"15.06409556","LAUNCH_DATE":"2021-05-26","ELEMENT_SET_NO":"999","APOAPSIS":"548.262","TLE_LINE2":"2 48688  53.0535  99.3800 0001556  73.6351 132.5279 15.06409556  3595","MEAN_ELEMENT_THEORY":"SGP4","EPHEMERIS_TYPE":"0","SITE":"AFETR","REF_FRAME":"TEME","ECCENTRICITY":"0.00015560"},{"GP_ID":"199187526","SEMIMAJOR_AXIS":"6927.911","OBJECT_ID":"2021-044BD","RA_OF_ASC_NODE":"104.2053","INCLINATION":"53.0538","REV_AT_EPOCH":"359","ARG_OF_PERICENTER":"58.3922","PERIAPSIS":"548.690","EPOCH":"2022-03-19T22:00:01.999584","MEAN_MOTION_DOT":"0.00042929","MEAN_ANOMALY":"199.3925","CENTER_NAME":"EARTH","TIME_SYSTEM":"UTC","BSTAR":"0.00294890000000","RCS_SIZE":"LARGE","FILE":"3366144","OBJECT_TYPE":"PAYLOAD","PERIOD":"95.645","CLASSIFICATION_TYPE":"U","OBJECT_NAME":"STARLINK-2617","DECAY_DATE":null,"MEAN_MOTION_DDOT":"0.0000000000000","COUNTRY_CODE":"US","MEAN_ELEMENT_THEORY":"SGP4","TLE_LINE2":"2 48689  53.0538 104.2053 0001567  58.3922 199.3925 15.05564349  3591","MEAN_MOTION":"15.05564349","LAUNCH_DATE":"2021-05-26","APOAPSIS":"550.861","ELEMENT_SET_NO":"999","NORAD_CAT_ID":"48689","TLE_LINE1":"1 48689U 21044BD  22078.91668981  .00042929  00000-0  29489-2 0  9993","ECCENTRICITY":"0.00015670","REF_FRAME":"TEME","SITE":"AFETR","EPHEMERIS_TYPE":"0"},{"FILE":"3366144","OBJECT_TYPE":"PAYLOAD","RCS_SIZE":"LARGE","PERIOD":"95.593","CLASSIFICATION_TYPE":"U","OBJECT_NAME":"STARLINK-2740","DECAY_DATE":null,"MEAN_MOTION_DDOT":"0.0000000000000","COUNTRY_CODE":"US","CENTER_NAME":"EARTH","TIME_SYSTEM":"UTC","BSTAR":"0.00223380000000","ECCENTRICITY":"0.00015350","REF_FRAME":"TEME","SITE":"AFETR","EPHEMERIS_TYPE":"0","TLE_LINE2":"2 48690  53.0531 114.3869 0001535  67.0213  76.6553 15.06389976  3594","MEAN_ELEMENT_THEORY":"SGP4","MEAN_MOTION":"15.06389976","LAUNCH_DATE":"2021-05-26","ELEMENT_SET_NO":"999","APOAPSIS":"548.307","NORAD_CAT_ID":"48690","TLE_LINE1":"1 48690U 21044BE  22078.91668981  .00033139  00000-0  22338-2 0  9994","GP_ID":"199187777","SEMIMAJOR_AXIS":"6925.379","OBJECT_ID":"2021-044BE","ARG_OF_PERICENTER":"67.0213","EPOCH":"2022-03-19T22:00:01.999584","PERIAPSIS":"546.181","MEAN_MOTION_DOT":"0.00033139","MEAN_ANOMALY":"76.6553","RA_OF_ASC_NODE":"114.3869","INCLINATION":"53.0531","REV_AT_EPOCH":"359"},{"EPHEMERIS_TYPE":"0","SITE":"AFETR","REF_FRAME":"TEME","ECCENTRICITY":"0.00018050","TLE_LINE1":"1 48691U 21044BF  22078.91668981  .00040886  00000-0  27495-2 0  9991","NORAD_CAT_ID":"48691","ELEMENT_SET_NO":"999","APOAPSIS":"548.531","MEAN_MOTION":"15.06377862","LAUNCH_DATE":"2021-05-26","MEAN_ELEMENT_THEORY":"SGP4","TLE_LINE2":"2 48691  53.0591 109.3656 0001805  56.2890 234.9273 15.06377862  3599","DECAY_DATE":null,"COUNTRY_CODE":"US","MEAN_MOTION_DDOT":"0.0000000000000","CLASSIFICATION_TYPE":"U","OBJECT_NAME":"STARLINK-2750","PERIOD":"95.594","RCS_SIZE":"LARGE","FILE":"3366144","OBJECT_TYPE":"PAYLOAD","BSTAR":"0.00274950000000","TIME_SYSTEM":"UTC","CENTER_NAME":"EARTH","MEAN_ANOMALY":"234.9273","MEAN_MOTION_DOT":"0.00040886","PERIAPSIS":"546.031","EPOCH":"2022-03-19T22:00:01.999584","ARG_OF_PERICENTER":"56.2890","REV_AT_EPOCH":"359","INCLINATION":"53.0591","RA_OF_ASC_NODE":"109.3656","OBJECT_ID":"2021-044BF","SEMIMAJOR_AXIS":"6925.416","GP_ID":"199187250"},{"OBJECT_ID":"2021-044BG","SEMIMAJOR_AXIS":"6925.390","GP_ID":"199186776","MEAN_ANOMALY":"359.4220","MEAN_MOTION_DOT":"0.00036617","ARG_OF_PERICENTER":"76.9613","PERIAPSIS":"546.306","EPOCH":"2022-03-19T22:00:01.999584","REV_AT_EPOCH":"359","INCLINATION":"53.0544","RA_OF_ASC_NODE":"109.3917","OBJECT_NAME":"STARLINK-2752","CLASSIFICATION_TYPE":"U","DECAY_DATE":null,"MEAN_MOTION_DDOT":"0.0000000000000","COUNTRY_CODE":"US","PERIOD":"95.593","RCS_SIZE":"LARGE","FILE":"3366144","OBJECT_TYPE":"PAYLOAD","BSTAR":"0.00246530000000","TIME_SYSTEM":"UTC","CENTER_NAME":"EARTH","EPHEMERIS_TYPE":"0","SITE":"AFETR","REF_FRAME":"TEME","ECCENTRICITY":"0.00013710","NORAD_CAT_ID":"48692","TLE_LINE1":"1 48692U 21044BG  22078.91668981  .00036617  00000-0  24653-2 0  9992","MEAN_MOTION":"15.06386326","LAUNCH_DATE":"2021-05-26","ELEMENT_SET_NO":"999","APOAPSIS":"548.205","TLE_LINE2":"2 48692  53.0544 109.3917 0001371  76.9613 359.4220 15.06386326  3598","MEAN_ELEMENT_THEORY":"SGP4"},{"MEAN_ANOMALY":"267.3868","MEAN_MOTION_DOT":"0.00037494","ARG_OF_PERICENTER":"61.4574","PERIAPSIS":"546.282","EPOCH":"2022-03-19T22:00:01.999584","REV_AT_EPOCH":"359","INCLINATION":"53.0545","RA_OF_ASC_NODE":"114.3909","OBJECT_ID":"2021-044BH","SEMIMAJOR_AXIS":"6925.419","GP_ID":"199187026","EPHEMERIS_TYPE":"0","SITE":"AFETR","REF_FRAME":"TEME","ECCENTRICITY":"0.00014480","NORAD_CAT_ID":"48693","TLE_LINE1":"1 48693U 21044BH  22078.91668981  .00037494  00000-0  25242-2 0  9992","LAUNCH_DATE":"2021-05-26","MEAN_MOTION":"15.06376882","ELEMENT_SET_NO":"999","APOAPSIS":"548.287","MEAN_ELEMENT_THEORY":"SGP4","TLE_LINE2":"2 48693  53.0545 114.3909 0001448  61.4574 267.3868 15.06376882  3598","CLASSIFICATION_TYPE":"U","OBJECT_NAME":"STARLINK-2618","MEAN_MOTION_DDOT":"0.0000000000000","DECAY_DATE":null,"COUNTRY_CODE":"US","PERIOD":"95.594","FILE":"3366144","OBJECT_TYPE":"PAYLOAD","RCS_SIZE":"LARGE","BSTAR":"0.00252420000000","TIME_SYSTEM":"UTC","CENTER_NAME":"EARTH"}];
